#dP2020  7 27  0  0  0.00000000      97 __u+U IGS14 FIT  IAC
## 2116  86400.00000000   900.00000000 59057 0.0000000000000
+  122   C01C02C03C04C05C06C07C08C09C10C11C12C13C14C16C19C20
+        C21C22C23C24C25C26C27C28C29C30C32C33C34C35C36C37C38
+        C39C40C43C44C45C46C60E01E02E03E04E05E07E08E09E11E12
+        E13E14E15E18E19E21E24E25E26E27E30E31E33E36G01G02G03
+        G04G05G06G07G08G09G10G11G12G13G14G15G16G17G18G19G20
+        G21G22G23G24G25G26G27G28G29G30G31G32J01J02J03R01R02
+        R03R04R05R07R08R09R11R12R13R14R15R16R17R18R19R20R21
+        R23R24R26  0  0  0  0  0  0  0  0  0  0  0  0  0  0
++        13 13 13 13 13  8  8  8  7  8  7  7  8  7  8  7  7
++         7  7  7  7  8  7  7  7  7  7  7  8  8  7  8  7 10
++        10 11 14  9  9  9 20  4  4  4  4  4  5  4  4  4  4
++         4  4  4  4  4  4  4  4  4  4  4  4  4  4  3  3  3
++         3  3  3  3  3  3  3  3  3  3  0  3  3  3  3  3  3
++         3  3  4  3  3  3  3  3  3  3  3  3 10 10  9  6  5
++         5  5  5  5  6  5  5  5  6  5  5  6  5  5  6  6  5
++         5  5  8  0  0  0  0  0  0  0  0  0  0  0  0  0  0
%c M  cc GPS ccc cccc cccc cccc cccc ccccc ccccc ccccc ccccc
%c cc cc ccc ccc cccc cccc cccc cccc ccccc ccccc ccccc ccccc
%f  1.2500000  1.025000000  0.00000000000  0.000000000000000
%f  0.0000000  0.000000000  0.00000000000  0.000000000000000
%i    0    0    0    0      0      0      0      0         0
%i    0    0    0    0      0      0      0      0         0
/* INFORMATION & ANALYSIS CENTER (IAC)            FINAL DATA
/* S/V CLOCKS ARE ALIGNED TO GNSS TIME                      
/* G:C1WC2W R:C1PC2P E:C1XC5X C:C2IC6I J:C1CC2S             
/* PCV:IGS14_2113 OL/AL:FES2004  NONE     YN ORB:CoN CLK:CoN
*  2020 07 27 12 15  0.00000000
PC01 -34378.060570  24394.494296   -278.274443   -287.811059
PC02   4520.479817  41938.528694    692.870070    187.686720
PC03 -14831.222429  39505.402617    115.198141    817.296288
PC04 -39649.623478  14375.184099   -557.248826    -76.822595
PC05  21888.713573  36037.465804   1007.882629     51.037182
PC06  -5675.221455  29204.082877  30453.557940    795.919616
PC07 -21546.177448  25414.804243 -25884.775706    126.647997
PC08 -17143.583136  38192.529071  -2802.146258   -403.753844
PC09   5619.495488  35970.832222  21858.811147    704.059445
PC10  -7370.276418  27032.957423 -31396.012014   -226.204392
PC11  -4959.087707  19932.148855 -18812.201675   -517.333037
PC12 -15675.350668   1905.504970 -22985.945789    446.445595
PC13  -7666.925860  39889.592730  10803.512787    564.723167
PC14 -13489.070545  13141.964324  20640.012899    729.648891
PC16  -3081.382484  30033.409852  29595.669110   -595.146521
PC19   2705.184645 -15693.080425 -22890.209610    488.559352
PC20  21132.148825  -8969.016833 -15826.064035   -837.036868
PC21 -27693.780025  -3419.671390   -950.482791   -661.773141
PC22 -17732.488260 -13501.417257 -16810.672005   -768.637384
PC23   7409.012152  15937.445794 -21664.454678   -844.194845
PC24 -19849.657813  18230.105289   7210.021923   -755.652349
PC25  -7874.766398  24528.357580 -10707.585582   -700.514489
PC26 -19272.773785   2777.213827  19978.608734    770.122301
PC27  18176.412790   8424.465097  19412.492046    371.430140
PC28  13885.921826  23668.284089   5041.421290   -190.357784
PC29  -2443.953785 -24968.284426  12212.711354    261.664883
PC30  11607.236277 -11825.216543  22445.086906    352.478193
PC32  27692.820329   3239.153591    988.042116   -878.223891
PC33  -2761.842105  15736.390662  22886.438300   -795.973255
PC34 -11353.227208  12349.175078 -22314.645797   -891.936463
PC35 -14604.795668 -23261.850403  -4850.251331   -730.552277
PC36   8611.305148 -24370.269683  10541.348037   -880.948268
PC37  19088.822373  -1685.676831 -20262.919403   -880.569199
PC38 -16086.347722  38867.254679  -1390.831702     91.235861
PC39  -1315.616423  29922.580266  29722.528893     19.879415
PC40 -14638.660003  21903.000206 -32963.177895     65.491467
PC43   1979.216159  24907.490601 -12454.856967   -300.722280
PC44 -18554.395455  -7924.099682 -19275.477267 999999.999999
PC45  -7388.298693 -15844.775434  21766.593255    189.985422
PC46  19592.997323 -18732.391655  -6672.687718    716.295154
PC60   7280.520445  41490.611288  -1846.227426 999999.999999
PE01  11786.314023  12076.126479 -24312.701862   -906.989016
PE02 -11884.445882 -12016.149531  24304.363511    150.201601
PE03 -20477.581532 -19603.937103  -8545.898982   -325.129008
PE04  26710.899793   8229.179618  -9729.627761   -574.251051
PE05  -2133.018020 -19624.162701 -22053.213511   -359.740002
PE07 -17317.094391   8185.280382  22581.347359   -414.553833
PE08 -26723.504455  -7927.043549   9991.691877   6143.697627
PE09  17077.103140  -8271.543242 -22705.447081   5983.230357
PE11  12992.194516 -18273.393156  19306.396375   4382.083763
PE12  16076.023869   4111.059355  24508.161091   5685.776210
PE13 -12959.078514  18103.772370 -19508.110830    402.606629
PE14 -23876.480096 -15678.763809  -9697.777148  -1098.907156
PE15 -16037.680382  -3789.584330 -24588.129071    858.484304
PE18  15423.888835  21894.612054  -2492.568796  -1202.693771
PE19  18961.700653  20164.533653  10494.559431     38.109990
PE21  -8561.065297  19969.127655 -20101.930957   -612.425444
PE24  24578.621071 -16079.336230   3729.643331   5329.067473
PE25   8687.047501 -19988.210713  20036.790609   -514.236991
PE26  -2161.815149  29413.331138  -2482.189402   2912.196493
PE27 -24335.387434  16355.838159  -4054.348526    168.611595
PE30 -25601.607778   2648.706723  14612.054020   3714.078512
PE31  25730.447531  -3171.488864 -14267.024937   -473.389695
PE33   9693.389871  23463.022035  15223.468519   -464.440347
PE36   2268.839905 -29363.076473   2967.836804    528.673951
PG01  14121.730615 -18323.354544  12508.658629     29.311185
PG02 -14574.875832  -3283.649210 -21324.201164   -493.434675
PG03  21113.341472 -12481.038232 -10135.312166   -252.286275
PG04  10080.610791 -11502.635808 -21701.155953   -117.465711
PG05 -25144.299557    523.071429  -8989.316107    -17.534014
PG06  -8273.633076 -16815.657153 -18752.933972   -308.427968
PG07   4758.893655 -25614.730621   3858.652924   -336.712164
PG08  18059.359155   -904.762553  19552.551658    -42.402782
PG09  -1399.646672 -19515.158748 -18005.868366   -260.591125
PG10   8481.713485  13200.596825  21547.958295   -411.219261
PG11  13623.727403 -10384.825096  19879.073358   -209.506854
PG12 -22133.509796  10763.817537 -10018.755658     88.365182
PG13 -19714.032277  -8431.985156  15622.188518     30.411354
PG14      0.000000      0.000000      0.000000 999999.999999
PG15 -18058.107394   3432.073258  18972.749026   -214.709300
PG16  26120.827730    122.410691  -6199.493327   -187.996047
PG17 -14026.701572 -21981.444858   5595.544675    302.156037
PG18  -5244.011249  25733.389841   3834.432087    256.266383
PG19 -17888.763665 -19474.676567  -3057.302832   -126.475576
PG20  -3968.797190  17228.116506  19676.671274    527.197020
PG21  10160.095780  16670.225296  18911.694817     28.640948
PG22  24459.309375  -9933.903304  -1867.434972   -769.002150
PG23  -2499.212261  15943.062955  21065.314822     19.041831
PG24 -14466.330230  16636.714563  14339.736782    -16.252113
PG25 -12782.035015  15598.290451 -17387.226226     28.092350
PG26  19055.859301   7356.783280 -17127.757109    250.761239
PG27  21333.430711   9835.526662  12566.904660   -356.289489
PG28  -8753.790617 -13478.649587  21701.874982    695.558181
PG29  -3378.972109  16861.601210 -20275.256457   -159.511097
PG30  -2730.252567 -22870.067775  13083.439243   -270.381512
PG31   9689.152306  15036.120169 -19526.449257    -58.301863
PG32  16008.625678  20833.334102   4500.048995    323.605021
PJ01 -29098.465376  22562.773945  25658.181244   -195.889830
PJ02 -35921.812664  22073.446254   2625.742018     -1.697609
PJ03 -19401.437304  23616.707498 -24412.714290     -0.208923
PR01 -16985.279768 -12054.785624 -14734.418385     65.152201
PR02 -24392.644853  -4427.933301   5924.290075    438.204392
PR03 -15124.462448   5376.734937  19850.101602     19.292378
PR04   2644.581316  11791.090213  22491.804126     57.757093
PR05  18925.660292  11748.895545  12457.999836     54.801019
PR07  14705.936204  -5586.084775 -20055.530497    -38.795554
PR08  -2614.626318 -11876.568585 -22365.745286    -53.720237
PR09  19451.978806  -9681.725998 -13283.549037    145.669031
PR11   7216.405240 -18041.956478  16513.966321    -31.971973
PR12  -7116.763731  -8336.347022  23064.798270    150.533251
PR13 -18142.755664   6612.968076  16660.462839    -41.706401
PR14 -18567.573675  17504.072838    299.497889     53.796963
PR15  -8183.822396  18188.185126 -15879.864092    106.947726
PR16   8033.538565   7699.557823 -22969.608813     -4.859149
PR17  -6574.374463  13296.274236 -20737.912756    344.674949
PR18   1877.835439  24153.752129  -8054.161078     43.733092
PR19   8515.016930  22508.180393   8439.422673   -104.185683
PR20  11289.032769   6129.237714  22045.338144   -417.790241
PR21   6078.054656 -14241.867122  20274.068971   -140.959505
PR23 -10815.106001 -17852.344913 -14680.804595    321.350538
PR24 -11711.564636  -5147.700220 -22061.753018      7.701220
PR26  11642.729652  11031.448719  19829.001214   -364.327541
EOF
